NORAD_CAT_ID,OBJECT_NAME,OBJECT_TYPE,EPOCH,MEAN_MOTION,ECCENTRICITY,INCLINATION,RA_OF_ASC_NODE,ARG_OF_PERICENTER,MEAN_ANOMALY,BSTAR,MEAN_MOTION_DOT,MEAN_MOTION_DDOT,TLE_LINE0,TLE_LINE1,TLE_LINE2,SEMIMAJOR_AXIS,PERIOD,APOGEE,PERIGEE,DECAYED
52644.0,STARLINK-3985,PAYLOAD,2023-02-25 12:55:29,15.08832287,0.0001337,53.2145,193.8029,100.1794,259.9349,6.5952e-05,7.62e-06,0.0,0 STARLINK-3985,1 52644U 22052AY  23056.53853334  .00000762  00000-0  65952-4 0  9998,2 52644  53.2145 193.8029 0001337 100.1794 259.9349 15.08832287 43834,6917.904,95.438,540.694,538.844,0.0
52644.0,STARLINK-3985,PAYLOAD,2023-02-25 16:06:15,15.08837239,0.0001139,53.2157,193.2102,86.7899,273.3223,9.3402e-05,1.199e-05,0.0,0 STARLINK-3985,1 52644U 22052AY  23056.67101043  .00001199  00000-0  93402-4 0  9992,2 52644  53.2157 193.2102 0001139  86.7899 273.3223 15.08837239 43853,6917.889,95.438,540.542,538.966,0.0
52644.0,STARLINK-3985,PAYLOAD,2023-02-26 01:38:33,15.08843945,0.0001074,53.2157,191.4248,85.1646,274.9469,6.8256e-05,7.99e-06,0.0,0 STARLINK-3985,1 52644U 22052AY  23057.06844619  .00000799  00000-0  68256-4 0  9993,2 52644  53.2157 191.4248 0001074  85.1646 274.9469 15.08843945 44294,6917.868,95.437,540.476,538.99,0.0
52644.0,STARLINK-3985,PAYLOAD,2023-02-26 08:00:06,15.0884121,0.0001139,53.2156,190.2354,84.8105,275.3017,0.00015913,2.246e-05,0.0,0 STARLINK-3985,1 52644U 22052AY  23057.33340782  .00002246  00000-0  15913-3 0  9995,2 52644  53.2156 190.2354 0001139  84.8105 275.3017 15.08841210 43955,6917.877,95.437,540.53,538.954,0.0
52644.0,STARLINK-3985,PAYLOAD,2023-02-26 14:21:38,15.08852201,0.0001092,53.2156,189.0466,85.0497,275.0619,0.00021634,3.158e-05,0.0,0 STARLINK-3985,1 52644U 22052AY  23057.59835939  .00003158  00000-0  21634-3 0  9996,2 52644  53.2156 189.0466 0001092  85.0497 275.0619 15.08852201 44374,6917.843,95.437,540.464,538.953,0.0
52644.0,STARLINK-3985,PAYLOAD,2023-02-26 19:07:47,15.08862756,0.0001102,53.2155,188.1518,88.8131,271.2987,0.00036559,5.539e-05,0.0,0 STARLINK-3985,1 52644U 22052AY  23057.79707335  .00005539  00000-0  36559-3 0  9993,2 52644  53.2155 188.1518 0001102  88.8131 271.2987 15.08862756 44023,6917.811,95.436,540.438,538.913,0.0
52644.0,STARLINK-3985,PAYLOAD,2023-02-27 01:29:20,15.0883553,0.000109,53.2155,186.9643,97.8164,262.2952,-0.0001256,-2.286e-05,0.0,0 STARLINK-3985,1 52644U 22052AY  23058.06204598 -.00002286  00000-0 -12560-3 0  9991,2 52644  53.2155 186.9643 0001090  97.8164 262.2952 15.08835530 44448,6917.894,95.438,540.513,539.005,0.0
52644.0,STARLINK-3985,PAYLOAD,2023-02-27 07:50:53,15.08834014,0.0001125,53.2144,185.7755,98.4372,261.6748,4.3729e-05,4.08e-06,0.0,0 STARLINK-3985,1 52644U 22052AY  23058.32700933  .00000408  00000-0  43729-4 0  9998,2 52644  53.2144 185.7755 0001125  98.4372 261.6748 15.08834014 44109,6917.899,95.438,540.542,538.985,0.0
52644.0,STARLINK-3985,PAYLOAD,2023-02-27 17:23:11,15.08864178,0.0001127,53.2148,183.9903,97.9561,262.1559,0.00035675,5.398e-05,0.0,0 STARLINK-3985,1 52644U 22052AY  23058.72443295  .00005398  00000-0  35675-3 0  9990,2 52644  53.2148 183.9903 0001127  97.9561 262.1559 15.08864178 44542,6917.806,95.436,540.451,538.892,0.0
52644.0,STARLINK-3985,PAYLOAD,2023-02-28 10:52:26,15.08831853,0.0001591,53.2157,180.7212,101.063,259.0541,-0.00015274,-2.718e-05,0.0,0 STARLINK-3985,1 52644U 22052AY  23059.45308977 -.00002718  00000-0 -15274-3 0  9996,2 52644  53.2157 180.7212 0001591 101.0630 259.0541 15.08831853 44651,6917.905,95.438,540.871,538.67,0.0
52644.0,STARLINK-3985,PAYLOAD,2023-02-28 14:03:13,15.08829322,0.0001261,53.2151,180.124,103.139,256.9743,-0.00020754,-3.588e-05,0.0,0 STARLINK-3985,1 52644U 22052AY  23059.58557009 -.00003588  00000-0 -20754-3 0  9997,2 52644  53.2151 180.1240 0001261 103.1390 256.9743 15.08829322 44298,6917.913,95.438,540.65,538.906,0.0
52644.0,STARLINK-3985,PAYLOAD,2023-02-28 20:24:45,15.08832651,9.6e-05,53.2142,178.9348,84.0179,276.0922,-3.8618e-05,-9.02e-06,0.0,0 STARLINK-3985,1 52644U 22052AY  23059.85053119 -.00000902  00000-0 -38618-4 0  9996,2 52644  53.2142 178.9348 0000960  84.0179 276.0922 15.08832651 44335,6917.903,95.438,540.432,539.104,0.0
52644.0,STARLINK-3985,PAYLOAD,2023-03-01 01:10:55,15.0881535,2.69e-05,53.2147,178.0435,31.9543,328.1466,-0.0003058,-5.147e-05,0.0,0 STARLINK-3985,1 52644U 22052AY  23060.04925765 -.00005147  00000-0 -30580-3 0  9999,2 52644  53.2147 178.0435 0000269  31.9543 328.1466 15.08815350 44740,6917.956,95.439,540.007,539.635,0.0
52644.0,STARLINK-3985,PAYLOAD,2023-03-01 18:40:11,15.08834636,0.0001546,53.2146,174.773,59.9489,300.1656,0.00071879,0.00011168,0.0,0 STARLINK-3985,1 52644U 22052AY  23060.77790985  .00011168  00000-0  71879-3 0  9997,2 52644  53.2146 174.7730 0001546  59.9489 300.1656 15.08834636 44859,6917.897,95.438,540.831,538.692,0.0
52644.0,STARLINK-3985,PAYLOAD,2023-03-02 18:30:57,15.08889372,0.0001713,53.2148,170.313,56.0061,304.1094,0.0020186,0.00032028,0.0,0 STARLINK-3985,1 52644U 22052AY  23061.77149840  .00032028  00000-0  20186-2 0  9998,2 52644  53.2148 170.3130 0001713  56.0061 304.1094 15.08889372 45002,6917.729,95.434,540.779,538.409,0.0
52644.0,STARLINK-3985,PAYLOAD,2023-03-03 10:24:48,15.08871219,0.0001427,53.2155,167.3396,59.6759,300.4374,0.0014947,0.00023601,0.0,0 STARLINK-3985,1 52644U 22052AY  23062.43389385  .00023601  00000-0  14947-2 0  9997,2 52644  53.2155 167.3396 0001427  59.6759 300.4374 15.08871219 45107,6917.785,95.436,540.637,538.663,0.0
52644.0,STARLINK-3985,PAYLOAD,2023-03-03 18:21:43,15.08901824,0.0001601,53.2153,165.8522,70.9691,289.1474,0.0024124,0.0003838,0.0,0 STARLINK-3985,1 52644U 22052AY  23062.76508198  .00038380  00000-0  24124-2 0  9996,2 52644  53.2153 165.8522 0001601  70.9691 289.1474 15.08901824 45159,6917.691,95.434,540.664,538.449,0.0
52644.0,STARLINK-3985,PAYLOAD,2023-03-04 07:04:49,15.08824796,0.0001404,53.2157,163.4731,117.6382,242.4753,0.0015899,0.00025095,0.0,0 STARLINK-3985,1 52644U 22052AY  23063.29501223  .00025095  00000-0  15899-2 0  9995,2 52644  53.2157 163.4731 0001404 117.6382 242.4753 15.08824796 45239,6917.927,95.439,540.763,538.821,0.0
52644.0,STARLINK-3985,PAYLOAD,2023-03-04 13:26:21,15.0885248,0.0001242,53.2154,162.2835,105.3429,254.77,0.0034982,0.00055846,0.0,0 STARLINK-3985,1 52644U 22052AY  23063.55997326  .00055846  00000-0  34982-2 0  9998,2 52644  53.2154 162.2835 0001242 105.3429 254.7700 15.08852480 44894,6917.842,95.437,540.566,538.848,0.0
52644.0,STARLINK-3985,PAYLOAD,2023-03-04 18:12:30,15.08875098,0.0001115,53.2154,161.3915,98.6817,261.4302,0.0035675,0.00057003,0.0,0 STARLINK-3985,1 52644U 22052AY  23063.75869014  .00057003  00000-0  35675-2 0  9999,2 52644  53.2154 161.3915 0001115  98.6817 261.4302 15.08875098 45307,6917.773,95.435,540.409,538.867,0.0
52644.0,STARLINK-3985,PAYLOAD,2023-03-04 22:58:40,15.08807799,0.0001107,53.2157,160.4997,142.8171,217.2898,0.0017786,0.00028107,0.0,0 STARLINK-3985,1 52644U 22052AY  23063.95741401  .00028107  00000-0  17786-2 0  9996,2 52644  53.2157 160.4997 0001107 142.8171 217.2898 15.08807799 45331,6917.979,95.44,540.61,539.078,0.0
52644.0,STARLINK-3985,PAYLOAD,2023-03-05 06:55:36,15.08826867,0.0001147,53.2159,159.0116,118.7385,241.3722,0.0031347,0.00049936,0.0,0 STARLINK-3985,1 52644U 22052AY  23064.28862074  .00049936  00000-0  31347-2 0  9995,2 52644  53.2159 159.0116 0001147 118.7385 241.3722 15.08826867 45008,6917.921,95.438,540.579,538.992,0.0
52644.0,STARLINK-3985,PAYLOAD,2023-03-05 22:49:27,15.0887172,6.41e-05,53.2168,156.0393,107.9357,252.1705,0.0025263,0.00040182,0.0,0 STARLINK-3985,1 52644U 22052AY  23064.95101829  .00040182  00000-0  25263-2 0  9997,2 52644  53.2168 156.0393 0000641 107.9357 252.1705 15.08871720 45480,6917.783,95.436,540.092,539.205,0.0
52644.0,STARLINK-3985,PAYLOAD,2023-03-06 11:32:33,15.08839221,0.0001574,53.2158,153.6632,97.7115,262.4056,0.00091201,0.00014256,0.0,0 STARLINK-3985,1 52644U 22052AY  23065.48094424  .00014256  00000-0  91201-3 0  9997,2 52644  53.2158 153.6632 0001574  97.7115 262.4056 15.08839221 45564,6917.883,95.438,540.837,538.659,0.0
52644.0,STARLINK-3985,PAYLOAD,2023-03-06 16:18:42,15.088593,0.0001105,53.2151,152.7666,124.5531,235.5565,0.0013551,0.00021356,0.0,0 STARLINK-3985,1 52644U 22052AY  23065.67965623  .00021356  00000-0  13551-2 0  9996,2 52644  53.2151 152.7666 0001105 124.5531 235.5565 15.08859300 45594,6917.821,95.436,540.451,538.922,0.0
52644.0,STARLINK-3985,PAYLOAD,2023-03-06 22:40:15,15.08843746,0.0001496,53.2157,151.5781,89.9087,270.2076,0.00068625,0.00010652,0.0,0 STARLINK-3985,1 52644U 22052AY  23065.94462389  .00010652  00000-0  68625-3 0  9997,2 52644  53.2157 151.5781 0001496  89.9087 270.2076 15.08843746 45633,6917.869,95.437,540.769,538.699,0.0
52644.0,STARLINK-3985,PAYLOAD,2023-03-07 14:34:06,15.08878126,0.000206,53.2145,148.6033,84.2317,275.891,0.0016356,0.00025866,0.0,0 STARLINK-3985,1 52644U 22052AY  23066.60701579  .00025866  00000-0  16356-2 0  9994,2 52644  53.2145 148.6033 0002060  84.2317 275.8910 15.08878126 45738,6917.764,95.435,541.054,538.204,0.0
52644.0,STARLINK-3985,PAYLOAD,2023-03-07 22:31:01,15.08863525,0.0001419,53.2142,147.1191,118.2095,241.9041,0.00092145,0.00014417,0.0,0 STARLINK-3985,1 52644U 22052AY  23066.93821380  .00014417  00000-0  92145-3 0  9994,2 52644  53.2142 147.1191 0001419 118.2095 241.9041 15.08863525 45402,6917.808,95.436,540.655,538.692,0.0
52644.0,STARLINK-3985,PAYLOAD,2023-03-08 09:38:44,15.08833753,0.0001339,53.214,145.0376,118.9067,241.206,0.0030419,0.00048449,0.0,0 STARLINK-3985,1 52644U 22052AY  23067.40189961  .00048449  00000-0  30419-2 0  9996,2 52644  53.2140 145.0376 0001339 118.9067 241.2060 15.08833753 45852,6917.899,95.438,540.691,538.838,0.0
52644.0,STARLINK-3985,PAYLOAD,2023-03-09 11:04:54,15.0888957,0.0001788,53.2148,140.2778,131.959,228.1554,0.0033693,0.00053818,0.0,0 STARLINK-3985,1 52644U 22052AY  23068.46173703  .00053818  00000-0  33693-2 0  9993,2 52644  53.2148 140.2778 0001788 131.9590 228.1554 15.08889570 46016,6917.729,95.434,540.831,538.357,0.0
